#aV2007  3  8  0  0   .00000000      96 DD+AD WGS84 FIT  NGA
## 1417 345600.00000000   900.00000000 54167  .0000000000000
+   30     1  2  3  4  5  6  7  8  9 10 11 12 13 14 16 17 18
+         19 20 21 22 23 24 25 26 27 28 29 30 31  0  0  0  0
+          0  0  0  0  0  0  0  0  0  0  0  0  0  0  0  0  0
+          0  0  0  0  0  0  0  0  0  0  0  0  0  0  0  0  0
+          0  0  0  0  0  0  0  0  0  0  0  0  0  0  0  0  0
++         0  0  0  0  0  0  0  0  0  0  0  0  0  0  0  0  0
++         0  0  0  0  0  0  0  0  0  0  0  0  0  0  0  0  0
++         0  0  0  0  0  0  0  0  0  0  0  0  0  0  0  0  0
++         0  0  0  0  0  0  0  0  0  0  0  0  0  0  0  0  0
++         0  0  0  0  0  0  0  0  0  0  0  0  0  0  0  0  0
%c cc cc ccc ccc cccc cccc cccc cccc ccccc ccccc ccccc ccccc
%c cc cc ccc ccc cccc cccc cccc cccc ccccc ccccc ccccc ccccc
%f  0.0000000  0.000000000  0.00000000000  0.000000000000000
%f  0.0000000  0.000000000  0.00000000000  0.000000000000000
%i    0    0    0    0      0      0      0      0         0
%i    0    0    0    0      0      0      0      0         0
/*      NGA, ST. LOUIS,MO.                                  
/*   EPHEMERIS COMPUTED FROM  3 DAYS OF DATA                
/* CCCCCCCCCCCCCCCCCCCCCCCCCCCCCCCCCCCCCCCCCCCCCCCCCCCCCCCCC
/* CCCCCCCCCCCCCCCCCCCCCCCCCCCCCCCCCCCCCCCCCCCCCCCCCCCCCCCCC
*  2007  3  8  4 45   .00000000                                                 
P  1  12663.785504 -20931.260864  10475.498566    112.301094                    
V  1  10683.767871  -7546.548885 -28615.290754       .024424                    
P  2  -2814.639218  15178.257284  21389.571982     88.448487                    
V  2 -26864.164985  -6962.857233   1131.153565       .032764                    
P  3   7129.040427 -22658.092440 -11746.249395     24.495484                    
V  3  12040.302528  -9281.205214  25986.152384       .056499                    
P  4 -17917.442644   8333.358843  17848.851961      7.023970                    
V  4 -21416.356054  -7723.568777 -17465.792352       .014601                    
P  5  14665.280579  20012.130487   9461.028088     42.448501                    
V  5   1343.162473  12632.060242 -27964.906955       .014016                    
P  6  17463.568051   2906.229249  20000.327041     73.974468                    
V  6 -16089.270641  19271.637338  11305.149894       .232662                    
P  7  19432.117554  -1551.833151  18416.004442    391.928656                    
V  7 -13695.477424  18253.137527  16213.190850      -.134040                    
P  8 -24241.287608    506.812224 -11455.140950    -99.203105                    
V  8 -13050.474735  -5801.812487  27217.745596      -.013887                    
P  9  15692.051673  14952.608229 -16088.333150     60.651463                    
V  9 -19139.187981  -2709.260013 -21765.295711       .015694                    
P 10    510.252439  25110.132166   8001.361794     98.470011                    
V 10  -5029.980493  -9465.486836  29936.503881       .005519                    
P 11 -18348.581951 -13233.776938 -14238.141198      9.496025                    
V 11  18243.191864  -1610.687767 -21883.213980       .012422                    
P 12  12314.023819  21925.813907   8731.117439    -45.994372                    
V 12    461.484524  11196.536599 -29085.101799       .018355                    
P 13 -18507.917226    517.741080  18928.975711    150.846497                    
V 13  16940.259855 -17272.356048  16997.100563       .038567                    
P 14  20822.438340 -15641.294790  -4954.188682     10.830828                    
V 14  -3224.650071   5855.236782 -31575.575670       .014607                    
P 16   4010.459807 -22429.160853  13617.695883    128.852344                    
V 16   6421.215936  16109.984955  24929.107352       .034762                    
P 17 -21033.450106  14904.310491  -6116.264762     76.116580                    
V 17   3529.027719  -7507.788211 -30536.146282      -.014621                    
P 18  16011.791826   4416.180270 -20659.878305   -253.225083                    
V 18   5113.337949  25999.168105   9140.636324       .003505                    
P 19    355.957678 -18281.320320 -19132.298809     12.332793                    
V 19  19327.566880 -15191.403748  14900.022425       .039638                    
P 20 -13166.262896 -20836.051952   9854.483314    -22.748520                    
V 20   -847.893750 -12912.889863 -28104.343181      -.002428                    
P 21  26106.393515   4609.139683  -4245.820787     72.956526                    
V 21   4366.827535   4388.747865  30312.858025       .008541                    
P 22  13214.806511  -9311.004065 -20917.078546    171.018664                    
V 22   6507.405375  26164.908159  -7500.563596       .016671                    
P 23 -11498.034795  -9641.632389  21840.717404    153.305917                    
V 23  19636.706164 -19802.157851   1402.652285       .018888                    
P 24  21474.602296  13058.676197   8325.301933     83.227063                    
V 24 -10777.120486   -385.701263  29413.322209       .031302                    
P 25  -3089.106059 -15835.027992  21491.681159    310.708222                    
V 25  26122.345983   3685.481454   6750.827039      -.206385                    
P 26  -1637.242943  18620.768209 -19044.753381    -78.007218                    
V 26 -17861.239213  15225.229808  17356.178192      -.190116                    
P 27 -26263.679206  -4484.289743  -1080.009718     98.034322                    
V 27  -1587.015484  -2948.152306  31587.821968       .020711                    
P 28 -14359.994994   4550.231057 -21540.915799      5.861758                    
V 28  -7015.001037 -27254.920699  -1408.168718      -.009112                    
P 29  -5941.649226  20439.718458 -15430.754805       .052794                    
V 29 -15311.890566  13100.209201  23271.771513       .005570                    
P 30  16360.028772  12561.218559  16491.084212     27.411689                    
V 30   4363.588507  21174.602357 -19976.902415       .011162                    
P 31  15541.662785  -9921.090665  19341.977978     13.996865                    
V 31  23022.150164   7267.480625 -14867.197403       .026581                    
EOF
